PLEIADES 1A             
1 38012U 11076F   26193.86337520 -.00000040  00000+0  12781-5 0  9992
2 38012  98.1974 268.6202 0001734  80.5015  43.7584 14.58545371775737
PLEIADES 1B             
1 39019U 12068A   26193.80506690  .00000138  00000+0  39547-4 0  9997
2 39019  98.1944 268.5029 0001614  78.7748 281.3633 14.58533572724589
